{
  "type": "FeatureCollection",
  "features": [
    {
      "type": "Feature",
      "properties": {
        "norad_id": 35705,
        "name": "COSMOS 2251 DEB",
        "group": "cosmos-2251-debris",
        "lat": 71.97670990625818,
        "lon": -108.23028200155173,
        "alt_km": 624.2971331029712,
        "timestamp": "2025-12-14T20:40:32.169463+00:00",
        "meta_object_name": "COSMOS 2251 DEB",
        "meta_object_id": "1993-036AQA",
        "meta_epoch": "2025-12-13T16:30:25.570944",
        "meta_mean_motion": 14.72285684,
        "meta_eccentricity": 0.00330748,
        "meta_inclination": 74.2763,
        "meta_ra_of_asc_node": 133.9994,
        "meta_arg_of_pericenter": 83.0917,
        "meta_mean_anomaly": 277.4017,
        "meta_ephemeris_type": 0,
        "meta_classification_type": "U",
        "meta_norad_cat_id": 35705,
        "meta_element_set_no": 999,
        "meta_rev_at_epoch": 85940,
        "meta_bstar": 0.003032246,
        "meta_mean_motion_dot": 0.00019351,
        "meta_mean_motion_ddot": 0,
        "tle_line1": "1 35705U 93036AQA 25347.68779596  .00019351  00000+0  30322-2 0  9999",
        "tle_line2": "2 35705  74.2763 133.9994 0033074  83.0917 277.4017 14.72285684859405"
      },
      "geometry": {
        "type": "Point",
        "coordinates": [
          -108.23028200155173,
          71.97670990625818
        ]
      }
    },
    {
      "type": "Feature",
      "properties": {
        "norad_id": 35706,
        "name": "COSMOS 2251 DEB",
        "group": "cosmos-2251-debris",
        "lat": -73.79147515215222,
        "lon": -36.836322385374714,
        "alt_km": 1256.15327660391,
        "timestamp": "2025-12-14T20:40:32.169473+00:00",
        "meta_object_name": "COSMOS 2251 DEB",
        "meta_object_id": "1993-036AQB",
        "meta_epoch": "2025-12-11T12:17:37.968864",
        "meta_mean_motion": 13.65920781,
        "meta_eccentricity": 0.03407993,
        "meta_inclination": 73.8889,
        "meta_ra_of_asc_node": 64.8358,
        "meta_arg_of_pericenter": 114.8803,
        "meta_mean_anomaly": 248.8145,
        "meta_ephemeris_type": 0,
        "meta_classification_type": "U",
        "meta_norad_cat_id": 35706,
        "meta_element_set_no": 999,
        "meta_rev_at_epoch": 62045,
        "meta_bstar": 0.0015097542,
        "meta_mean_motion_dot": 1.827e-05,
        "meta_mean_motion_ddot": 0,
        "tle_line1": "1 35706U 93036AQB 25345.51224501  .00001827  00000+0  15098-2 0  9993",
        "tle_line2": "2 35706  73.8889  64.8358 0340799 114.8803 248.8145 13.65920781620458"
      },
      "geometry": {
        "type": "Point",
        "coordinates": [
          -36.836322385374714,
          -73.79147515215222
        ]
      }
    },
    {
      "type": "Feature",
      "properties": {
        "norad_id": 35711,
        "name": "COSMOS 2251 DEB",
        "group": "cosmos-2251-debris",
        "lat": 7.9128892005947655,
        "lon": -141.33264004260795,
        "alt_km": 644.5932774991943,
        "timestamp": "2025-12-14T20:40:32.169483+00:00",
        "meta_object_name": "COSMOS 2251 DEB",
        "meta_object_id": "1993-036AQG",
        "meta_epoch": "2025-12-13T21:40:31.237248",
        "meta_mean_motion": 14.63806104,
        "meta_eccentricity": 0.00854278,
        "meta_inclination": 74.0455,
        "meta_ra_of_asc_node": 218.2268,
        "meta_arg_of_pericenter": 318.9377,
        "meta_mean_anomaly": 40.5379,
        "meta_ephemeris_type": 0,
        "meta_classification_type": "U",
        "meta_norad_cat_id": 35711,
        "meta_element_set_no": 999,
        "meta_rev_at_epoch": 87788,
        "meta_bstar": 0.00030192752,
        "meta_mean_motion_dot": 1.628e-05,
        "meta_mean_motion_ddot": 0,
        "tle_line1": "1 35711U 93036AQG 25347.90313932  .00001628  00000+0  30193-3 0  9994",
        "tle_line2": "2 35711  74.0455 218.2268 0085427 318.9377  40.5379 14.63806104877886"
      },
      "geometry": {
        "type": "Point",
        "coordinates": [
          -141.33264004260795,
          7.9128892005947655
        ]
      }
    },
    {
      "type": "Feature",
      "properties": {
        "norad_id": 35716,
        "name": "COSMOS 2251 DEB",
        "group": "cosmos-2251-debris",
        "lat": 55.65040597556564,
        "lon": -145.01826359676784,
        "alt_km": 631.9384454973497,
        "timestamp": "2025-12-14T20:40:32.169493+00:00",
        "meta_object_name": "COSMOS 2251 DEB",
        "meta_object_id": "1993-036AQM",
        "meta_epoch": "2025-12-14T08:05:22.485120",
        "meta_mean_motion": 14.60088737,
        "meta_eccentricity": 0.00888639,
        "meta_inclination": 73.9923,
        "meta_ra_of_asc_node": 191.1464,
        "meta_arg_of_pericenter": 31.7538,
        "meta_mean_anomaly": 151.6382,
        "meta_ephemeris_type": 0,
        "meta_classification_type": "U",
        "meta_norad_cat_id": 35716,
        "meta_element_set_no": 999,
        "meta_rev_at_epoch": 87650,
        "meta_bstar": 0.00013033395,
        "meta_mean_motion_dot": 6.3e-06,
        "meta_mean_motion_ddot": 0,
        "tle_line1": "1 35716U 93036AQM 25348.33706580  .00000630  00000+0  13033-3 0  9998",
        "tle_line2": "2 35716  73.9923 191.1464 0088863  31.7538 151.6382 14.60088737876509"
      },
      "geometry": {
        "type": "Point",
        "coordinates": [
          -145.01826359676784,
          55.65040597556564
        ]
      }
    },
    {
      "type": "Feature",
      "properties": {
        "norad_id": 35717,
        "name": "COSMOS 2251 DEB",
        "group": "cosmos-2251-debris",
        "lat": 21.50244822901724,
        "lon": -139.96129724347713,
        "alt_km": 727.4568067227392,
        "timestamp": "2025-12-14T20:40:32.169503+00:00",
        "meta_object_name": "COSMOS 2251 DEB",
        "meta_object_id": "1993-036AQN",
        "meta_epoch": "2025-12-11T09:07:06.227616",
        "meta_mean_motion": 14.38476212,
        "meta_eccentricity": 0.00768139,
        "meta_inclination": 74.1604,
        "meta_ra_of_asc_node": 219.9837,
        "meta_arg_of_pericenter": 79.9617,
        "meta_mean_anomaly": 281.0194,
        "meta_ephemeris_type": 0,
        "meta_classification_type": "U",
        "meta_norad_cat_id": 35717,
        "meta_element_set_no": 999,
        "meta_rev_at_epoch": 74080,
        "meta_bstar": 0.0019460313,
        "meta_mean_motion_dot": 6.131e-05,
        "meta_mean_motion_ddot": 0,
        "tle_line1": "1 35717U 93036AQN 25345.37993319  .00006131  00000+0  19460-2 0  9999",
        "tle_line2": "2 35717  74.1604 219.9837 0076813  79.9617 281.0194 14.38476212740802"
      },
      "geometry": {
        "type": "Point",
        "coordinates": [
          -139.96129724347713,
          21.50244822901724
        ]
      }
    },
    {
      "type": "Feature",
      "properties": {
        "norad_id": 35718,
        "name": "COSMOS 2251 DEB",
        "group": "cosmos-2251-debris",
        "lat": -3.088266119280756,
        "lon": 124.98189207132081,
        "alt_km": 675.9239164483433,
        "timestamp": "2025-12-14T20:40:32.169513+00:00",
        "meta_object_name": "COSMOS 2251 DEB",
        "meta_object_id": "1993-036AQP",
        "meta_epoch": "2025-12-12T03:17:53.201184",
        "meta_mean_motion": 14.68638717,
        "meta_eccentricity": 0.00109549,
        "meta_inclination": 74.0319,
        "meta_ra_of_asc_node": 131.1364,
        "meta_arg_of_pericenter": 179.8219,
        "meta_mean_anomaly": 180.2958,
        "meta_ephemeris_type": 0,
        "meta_classification_type": "U",
        "meta_norad_cat_id": 35718,
        "meta_element_set_no": 999,
        "meta_rev_at_epoch": 65831,
        "meta_bstar": 0.002396412,
        "meta_mean_motion_dot": 0.00013946,
        "meta_mean_motion_ddot": 0,
        "tle_line1": "1 35718U 93036AQP 25346.13742131  .00013946  00000+0  23964-2 0  9995",
        "tle_line2": "2 35718  74.0319 131.1364 0010954 179.8219 180.2958 14.68638717658312"
      },
      "geometry": {
        "type": "Point",
        "coordinates": [
          124.98189207132081,
          -3.088266119280756
        ]
      }
    },
    {
      "type": "Feature",
      "properties": {
        "norad_id": 35721,
        "name": "COSMOS 2251 DEB",
        "group": "cosmos-2251-debris",
        "lat": 58.98282920983394,
        "lon": -34.7733022626903,
        "alt_km": 867.4127689738289,
        "timestamp": "2025-12-14T20:40:32.169523+00:00",
        "meta_object_name": "COSMOS 2251 DEB",
        "meta_object_id": "1993-036AQS",
        "meta_epoch": "2025-12-09T19:36:39.465216",
        "meta_mean_motion": 14.34317214,
        "meta_eccentricity": 0.01465875,
        "meta_inclination": 73.9489,
        "meta_ra_of_asc_node": 183.1196,
        "meta_arg_of_pericenter": 330.1589,
        "meta_mean_anomaly": 29.126,
        "meta_ephemeris_type": 0,
        "meta_classification_type": "U",
        "meta_norad_cat_id": 35721,
        "meta_element_set_no": 999,
        "meta_rev_at_epoch": 57747,
        "meta_bstar": 0.0018396061,
        "meta_mean_motion_dot": 5.808e-05,
        "meta_mean_motion_ddot": 0,
        "tle_line1": "1 35721U 93036AQS 25343.81712344  .00005808  00000+0  18396-2 0  9995",
        "tle_line2": "2 35721  73.9489 183.1196 0146587 330.1589  29.1260 14.34317214577479"
      },
      "geometry": {
        "type": "Point",
        "coordinates": [
          -34.7733022626903,
          58.98282920983394
        ]
      }
    }
  ]
}